{"fetched_at":"2026-07-18T17:29:34.864Z","source":"https://celestrak.org/NORAD/elements/gp.php?GROUP=qianfan&FORMAT=JSON","constellation":"qianfan","records":[{"OBJECT_NAME":"QIANFAN-185","OBJECT_ID":"2026-125C","EPOCH":"2026-07-17T16:01:37.125984","CLASSIFICATION_TYPE":"U","MEAN_MOTION":13.9807928,"ECCENTRICITY":0.00124757,"INCLINATION":88.9941,"RA_OF_ASC_NODE":277.0226,"ARG_OF_PERICENTER":83.9961,"MEAN_ANOMALY":276.2638,"EPHEMERIS_TYPE":0,"NORAD_CAT_ID":69403,"ELEMENT_SET_NO":999,"REV_AT_EPOCH":600,"BSTAR":-1.12179,"MEAN_MOTION_DOT":-0.01496306,"MEAN_MOTION_DDOT":0},{"OBJECT_NAME":"QIANFAN-186","OBJECT_ID":"2026-125D","EPOCH":"2026-07-17T21:28:16.034592","CLASSIFICATION_TYPE":"U","MEAN_MOTION":13.87479647,"ECCENTRICITY":0.00172392,"INCLINATION":88.9943,"RA_OF_ASC_NODE":277.0017,"ARG_OF_PERICENTER":83.3598,"MEAN_ANOMALY":276.9535,"EPHEMERIS_TYPE":0,"NORAD_CAT_ID":69404,"ELEMENT_SET_NO":999,"REV_AT_EPOCH":603,"BSTAR":-1.8278572,"MEAN_MOTION_DOT":-0.02011551,"MEAN_MOTION_DDOT":0},{"OBJECT_NAME":"QIANFAN-187","OBJECT_ID":"2026-125E","EPOCH":"2026-07-17T22:33:04.452768","CLASSIFICATION_TYPE":"U","MEAN_MOTION":13.88827261,"ECCENTRICITY":0.00172334,"INCLINATION":88.9944,"RA_OF_ASC_NODE":276.9893,"ARG_OF_PERICENTER":83.7266,"MEAN_ANOMALY":276.5869,"EPHEMERIS_TYPE":0,"NORAD_CAT_ID":69405,"ELEMENT_SET_NO":999,"REV_AT_EPOCH":604,"BSTAR":-1.7805189,"MEAN_MOTION_DOT":-0.02005644,"MEAN_MOTION_DDOT":0},{"OBJECT_NAME":"QIANFAN-188","OBJECT_ID":"2026-125F","EPOCH":"2026-07-17T21:47:18.407616","CLASSIFICATION_TYPE":"U","MEAN_MOTION":13.91930945,"ECCENTRICITY":0.00192441,"INCLINATION":88.9941,"RA_OF_ASC_NODE":276.9829,"ARG_OF_PERICENTER":82.175,"MEAN_ANOMALY":278.1608,"EPHEMERIS_TYPE":0,"NORAD_CAT_ID":69406,"ELEMENT_SET_NO":999,"REV_AT_EPOCH":604,"BSTAR":-1.7859669,"MEAN_MOTION_DOT":-0.02114805,"MEAN_MOTION_DDOT":0},{"OBJECT_NAME":"QIANFAN-189","OBJECT_ID":"2026-125G","EPOCH":"2026-07-17T22:11:07.010880","CLASSIFICATION_TYPE":"U","MEAN_MOTION":13.90064559,"ECCENTRICITY":0.00168683,"INCLINATION":88.9942,"RA_OF_ASC_NODE":276.9867,"ARG_OF_PERICENTER":62.3849,"MEAN_ANOMALY":297.9035,"EPHEMERIS_TYPE":0,"NORAD_CAT_ID":69407,"ELEMENT_SET_NO":999,"REV_AT_EPOCH":603,"BSTAR":-1.8006757,"MEAN_MOTION_DOT":-0.02067373,"MEAN_MOTION_DDOT":0},{"OBJECT_NAME":"QIANFAN-190","OBJECT_ID":"2026-125H","EPOCH":"2026-07-18T06:39:52.819488","CLASSIFICATION_TYPE":"U","MEAN_MOTION":13.9456344,"ECCENTRICITY":0.00199525,"INCLINATION":88.9947,"RA_OF_ASC_NODE":276.9471,"ARG_OF_PERICENTER":70.5765,"MEAN_ANOMALY":289.7564,"EPHEMERIS_TYPE":0,"NORAD_CAT_ID":69408,"ELEMENT_SET_NO":999,"REV_AT_EPOCH":609,"BSTAR":0.000021352746,"MEAN_MOTION_DOT":4.2e-7,"MEAN_MOTION_DDOT":0},{"OBJECT_NAME":"QIANFAN-191","OBJECT_ID":"2026-125J","EPOCH":"2026-07-17T19:53:44.242656","CLASSIFICATION_TYPE":"U","MEAN_MOTION":13.93706641,"ECCENTRICITY":0.00190997,"INCLINATION":88.9949,"RA_OF_ASC_NODE":276.991,"ARG_OF_PERICENTER":73.7338,"MEAN_ANOMALY":286.5937,"EPHEMERIS_TYPE":0,"NORAD_CAT_ID":69409,"ELEMENT_SET_NO":999,"REV_AT_EPOCH":603,"BSTAR":0.000022645662,"MEAN_MOTION_DOT":4.3e-7,"MEAN_MOTION_DDOT":0},{"OBJECT_NAME":"QIANFAN-192","OBJECT_ID":"2026-125K","EPOCH":"2026-07-17T21:18:33.657120","CLASSIFICATION_TYPE":"U","MEAN_MOTION":13.89810493,"ECCENTRICITY":0.00185834,"INCLINATION":88.9941,"RA_OF_ASC_NODE":276.9815,"ARG_OF_PERICENTER":83.5828,"MEAN_ANOMALY":276.7461,"EPHEMERIS_TYPE":0,"NORAD_CAT_ID":69410,"ELEMENT_SET_NO":999,"REV_AT_EPOCH":604,"BSTAR":-1.7457762,"MEAN_MOTION_DOT":-0.02000759,"MEAN_MOTION_DDOT":0},{"OBJECT_NAME":"QIANFAN-193","OBJECT_ID":"2026-125L","EPOCH":"2026-07-17T21:08:42.718272","CLASSIFICATION_TYPE":"U","MEAN_MOTION":13.90949748,"ECCENTRICITY":0.00164337,"INCLINATION":88.9942,"RA_OF_ASC_NODE":276.9799,"ARG_OF_PERICENTER":69.7109,"MEAN_ANOMALY":290.5829,"EPHEMERIS_TYPE":0,"NORAD_CAT_ID":69411,"ELEMENT_SET_NO":999,"REV_AT_EPOCH":604,"BSTAR":-1.7051207,"MEAN_MOTION_DOT":-0.01992872,"MEAN_MOTION_DDOT":0},{"OBJECT_NAME":"QIANFAN-194","OBJECT_ID":"2026-125M","EPOCH":"2026-07-17T21:03:03.446208","CLASSIFICATION_TYPE":"U","MEAN_MOTION":13.91847361,"ECCENTRICITY":0.00190864,"INCLINATION":88.9939,"RA_OF_ASC_NODE":276.9798,"ARG_OF_PERICENTER":78.1356,"MEAN_ANOMALY":282.1958,"EPHEMERIS_TYPE":0,"NORAD_CAT_ID":69412,"ELEMENT_SET_NO":999,"REV_AT_EPOCH":603,"BSTAR":-1.7289528,"MEAN_MOTION_DOT":-0.02049043,"MEAN_MOTION_DDOT":0},{"OBJECT_NAME":"QIANFAN-195","OBJECT_ID":"2026-125N","EPOCH":"2026-07-17T21:58:29.827200","CLASSIFICATION_TYPE":"U","MEAN_MOTION":13.94901662,"ECCENTRICITY":0.00207248,"INCLINATION":88.9944,"RA_OF_ASC_NODE":276.9642,"ARG_OF_PERICENTER":59.0684,"MEAN_ANOMALY":301.2525,"EPHEMERIS_TYPE":0,"NORAD_CAT_ID":69413,"ELEMENT_SET_NO":999,"REV_AT_EPOCH":605,"BSTAR":-1.6927353,"MEAN_MOTION_DOT":-0.02111335,"MEAN_MOTION_DDOT":0},{"OBJECT_NAME":"QIANFAN-196","OBJECT_ID":"2026-125P","EPOCH":"2026-07-17T22:02:07.645920","CLASSIFICATION_TYPE":"U","MEAN_MOTION":13.9230184,"ECCENTRICITY":0.0021117,"INCLINATION":88.9934,"RA_OF_ASC_NODE":276.9647,"ARG_OF_PERICENTER":75.4806,"MEAN_ANOMALY":284.8709,"EPHEMERIS_TYPE":0,"NORAD_CAT_ID":69414,"ELEMENT_SET_NO":999,"REV_AT_EPOCH":605,"BSTAR":-1.6874208,"MEAN_MOTION_DOT":-0.02018474,"MEAN_MOTION_DDOT":0},{"OBJECT_NAME":"QIANFAN-197","OBJECT_ID":"2026-125Q","EPOCH":"2026-07-17T21:48:51.380064","CLASSIFICATION_TYPE":"U","MEAN_MOTION":13.94017507,"ECCENTRICITY":0.00209103,"INCLINATION":88.9942,"RA_OF_ASC_NODE":276.9659,"ARG_OF_PERICENTER":77.0099,"MEAN_ANOMALY":283.3409,"EPHEMERIS_TYPE":0,"NORAD_CAT_ID":69415,"ELEMENT_SET_NO":999,"REV_AT_EPOCH":604,"BSTAR":-1.4903697,"MEAN_MOTION_DOT":-0.01828013,"MEAN_MOTION_DDOT":0},{"OBJECT_NAME":"QIANFAN-198","OBJECT_ID":"2026-125R","EPOCH":"2026-07-17T22:05:41.519616","CLASSIFICATION_TYPE":"U","MEAN_MOTION":13.93939862,"ECCENTRICITY":0.00198379,"INCLINATION":88.9934,"RA_OF_ASC_NODE":276.9671,"ARG_OF_PERICENTER":62.8465,"MEAN_ANOMALY":297.473,"EPHEMERIS_TYPE":0,"NORAD_CAT_ID":69416,"ELEMENT_SET_NO":999,"REV_AT_EPOCH":605,"BSTAR":-1.6566289,"MEAN_MOTION_DOT":-0.02037041,"MEAN_MOTION_DDOT":0},{"OBJECT_NAME":"QIANFAN-199","OBJECT_ID":"2026-125S","EPOCH":"2026-07-17T22:27:23.408640","CLASSIFICATION_TYPE":"U","MEAN_MOTION":13.9817204,"ECCENTRICITY":0.0020735,"INCLINATION":88.9943,"RA_OF_ASC_NODE":276.9517,"ARG_OF_PERICENTER":61.7138,"MEAN_ANOMALY":298.6129,"EPHEMERIS_TYPE":0,"NORAD_CAT_ID":69417,"ELEMENT_SET_NO":999,"REV_AT_EPOCH":606,"BSTAR":-1.5461712,"MEAN_MOTION_DOT":-0.02046995,"MEAN_MOTION_DDOT":0},{"OBJECT_NAME":"QIANFAN-200","OBJECT_ID":"2026-125T","EPOCH":"2026-07-17T21:47:38.836032","CLASSIFICATION_TYPE":"U","MEAN_MOTION":13.8977798,"ECCENTRICITY":0.00143316,"INCLINATION":88.993,"RA_OF_ASC_NODE":276.9833,"ARG_OF_PERICENTER":71.1337,"MEAN_ANOMALY":289.1388,"EPHEMERIS_TYPE":0,"NORAD_CAT_ID":69418,"ELEMENT_SET_NO":999,"REV_AT_EPOCH":604,"BSTAR":-1.7844731,"MEAN_MOTION_DOT":-0.02040003,"MEAN_MOTION_DDOT":0},{"OBJECT_NAME":"QIANFAN-201","OBJECT_ID":"2026-153A","EPOCH":"2026-07-17T20:09:13.631040","CLASSIFICATION_TYPE":"U","MEAN_MOTION":14.2548123,"ECCENTRICITY":0.00061997,"INCLINATION":88.9972,"RA_OF_ASC_NODE":358.7543,"ARG_OF_PERICENTER":157.8285,"MEAN_ANOMALY":202.3177,"EPHEMERIS_TYPE":0,"NORAD_CAT_ID":69800,"ELEMENT_SET_NO":999,"REV_AT_EPOCH":192,"BSTAR":0.000017182966,"MEAN_MOTION_DOT":5.5e-7,"MEAN_MOTION_DDOT":0},{"OBJECT_NAME":"QIANFAN-202","OBJECT_ID":"2026-153B","EPOCH":"2026-07-18T06:50:51.705024","CLASSIFICATION_TYPE":"U","MEAN_MOTION":14.18843741,"ECCENTRICITY":0.00070167,"INCLINATION":88.9926,"RA_OF_ASC_NODE":358.6974,"ARG_OF_PERICENTER":165.0832,"MEAN_ANOMALY":195.0566,"EPHEMERIS_TYPE":0,"NORAD_CAT_ID":69801,"ELEMENT_SET_NO":999,"REV_AT_EPOCH":198,"BSTAR":0.000083144519,"MEAN_MOTION_DOT":0.00000187,"MEAN_MOTION_DDOT":0},{"OBJECT_NAME":"QIANFAN-203","OBJECT_ID":"2026-153C","EPOCH":"2026-07-18T04:58:08.788224","CLASSIFICATION_TYPE":"U","MEAN_MOTION":14.22391127,"ECCENTRICITY":0.00076481,"INCLINATION":88.9925,"RA_OF_ASC_NODE":358.7043,"ARG_OF_PERICENTER":174.1189,"MEAN_ANOMALY":186.0094,"EPHEMERIS_TYPE":0,"NORAD_CAT_ID":69802,"ELEMENT_SET_NO":999,"REV_AT_EPOCH":197,"BSTAR":0.000040676543,"MEAN_MOTION_DOT":0.00000105,"MEAN_MOTION_DDOT":0},{"OBJECT_NAME":"QIANFAN-204","OBJECT_ID":"2026-153D","EPOCH":"2026-07-18T06:44:51.137088","CLASSIFICATION_TYPE":"U","MEAN_MOTION":14.20114451,"ECCENTRICITY":0.00079699,"INCLINATION":88.9926,"RA_OF_ASC_NODE":358.6967,"ARG_OF_PERICENTER":168.5181,"MEAN_ANOMALY":191.6193,"EPHEMERIS_TYPE":0,"NORAD_CAT_ID":69803,"ELEMENT_SET_NO":999,"REV_AT_EPOCH":198,"BSTAR":0.000048185591,"MEAN_MOTION_DOT":0.00000117,"MEAN_MOTION_DDOT":0},{"OBJECT_NAME":"QIANFAN-205","OBJECT_ID":"2026-153E","EPOCH":"2026-07-18T06:41:32.100864","CLASSIFICATION_TYPE":"U","MEAN_MOTION":14.22264772,"ECCENTRICITY":0.00078665,"INCLINATION":88.9925,"RA_OF_ASC_NODE":358.6961,"ARG_OF_PERICENTER":172.51,"MEAN_ANOMALY":187.621,"EPHEMERIS_TYPE":0,"NORAD_CAT_ID":69804,"ELEMENT_SET_NO":999,"REV_AT_EPOCH":198,"BSTAR":0.00003673281,"MEAN_MOTION_DOT":9.6e-7,"MEAN_MOTION_DDOT":0},{"OBJECT_NAME":"QIANFAN-206","OBJECT_ID":"2026-153F","EPOCH":"2026-07-18T06:27:10.155456","CLASSIFICATION_TYPE":"U","MEAN_MOTION":14.24034599,"ECCENTRICITY":0.00083491,"INCLINATION":88.9925,"RA_OF_ASC_NODE":358.6948,"ARG_OF_PERICENTER":173.1328,"MEAN_ANOMALY":186.998,"EPHEMERIS_TYPE":0,"NORAD_CAT_ID":69805,"ELEMENT_SET_NO":999,"REV_AT_EPOCH":198,"BSTAR":0.000011830264,"MEAN_MOTION_DOT":4.2e-7,"MEAN_MOTION_DDOT":0},{"OBJECT_NAME":"QIANFAN-207","OBJECT_ID":"2026-153G","EPOCH":"2026-07-18T06:24:42.984288","CLASSIFICATION_TYPE":"U","MEAN_MOTION":14.24251008,"ECCENTRICITY":0.00077845,"INCLINATION":88.9925,"RA_OF_ASC_NODE":358.6946,"ARG_OF_PERICENTER":173.1728,"MEAN_ANOMALY":186.9572,"EPHEMERIS_TYPE":0,"NORAD_CAT_ID":69806,"ELEMENT_SET_NO":999,"REV_AT_EPOCH":198,"BSTAR":0.000053926755,"MEAN_MOTION_DOT":0.00000139,"MEAN_MOTION_DDOT":0}]}
